[{"OBJECT_NAME":"STARLINK-5074","OBJECT_ID":"2023-014AZ","EPOCH":"2026-03-09T09:06:34.770240","MEAN_MOTION":14.98327265,"ECCENTRICITY":0.00027793,"INCLINATION":70.0006,"RA_OF_ASC_NODE":65.0681,"ARG_OF_PERICENTER":261.6292,"MEAN_ANOMALY":98.4552,"EPHEMERIS_TYPE":0,"CLASSIFICATION_TYPE":"U","NORAD_CAT_ID":55438,"ELEMENT_SET_NO":999,"REV_AT_EPOCH":17201,"BSTAR":1.04542e-5,"MEAN_MOTION_DOT":3.2e-7,"MEAN_MOTION_DDOT":0},{"OBJECT_NAME":"ICEYE-X48","OBJECT_ID":"2025-052AV","EPOCH":"2026-03-09T16:59:01.566528","MEAN_MOTION":14.97356709,"ECCENTRICITY":0.00026878,"INCLINATION":97.6979,"RA_OF_ASC_NODE":322.3976,"ARG_OF_PERICENTER":141.7433,"MEAN_ANOMALY":218.398,"EPHEMERIS_TYPE":0,"CLASSIFICATION_TYPE":"U","NORAD_CAT_ID":63253,"ELEMENT_SET_NO":999,"REV_AT_EPOCH":5378,"BSTAR":0.00039588576,"MEAN_MOTION_DOT":4.541e-5,"MEAN_MOTION_DDOT":0}]
